NORAD_CAT_ID,OBJECT_NAME,OBJECT_TYPE,EPOCH,MEAN_MOTION,ECCENTRICITY,INCLINATION,RA_OF_ASC_NODE,ARG_OF_PERICENTER,MEAN_ANOMALY,BSTAR,MEAN_MOTION_DOT,MEAN_MOTION_DDOT,TLE_LINE0,TLE_LINE1,TLE_LINE2,SEMIMAJOR_AXIS,PERIOD,APOGEE,PERIGEE,DECAYED
52623.0,STARLINK-3986,PAYLOAD,2023-07-09 01:46:26,15.08826652,0.0001503,53.2167,324.3367,77.2928,282.8232,-0.00020065,-3.479e-05,0.0,0 STARLINK-3986,1 52623U 22052AB  23190.07391577 -.00003479  00000-0 -20065-3 0  9994,2 52623  53.2167 324.3367 0001503  77.2928 282.8232 15.08826652 64231,6917.921,95.438,540.826,538.746,0.0
52623.0,STARLINK-3986,PAYLOAD,2023-07-09 14:29:31,15.08834092,9.16e-05,53.2174,321.9588,88.2652,271.8445,-1.3398e-05,-5.01e-06,0.0,0 STARLINK-3986,1 52623U 22052AB  23190.60383497 -.00000501  00000-0 -13398-4 0  9990,2 52623  53.2174 321.9588 0000916  88.2652 271.8445 15.08834092 64310,6917.898,95.438,540.397,539.13,0.0
52623.0,STARLINK-3986,PAYLOAD,2023-07-10 14:20:18,15.08846329,9.1e-05,53.2169,317.4993,85.434,274.6756,0.00038684,5.875e-05,0.0,0 STARLINK-3986,1 52623U 22052AB  23191.59743523  .00005875  00000-0  38684-3 0  9990,2 52623  53.2169 317.4993 0000910  85.4340 274.6756 15.08846329 64469,6917.861,95.437,540.356,539.097,0.0
52623.0,STARLINK-3986,PAYLOAD,2023-07-11 01:28:00,15.08839439,7.15e-05,53.2165,315.4175,140.9745,219.1299,-3.953e-05,-9.17e-06,0.0,0 STARLINK-3986,1 52623U 22052AB  23192.06111433 -.00000917  00000-0 -39530-4 0  9998,2 52623  53.2165 315.4175 0000715 140.9745 219.1299 15.08839439 64532,6917.882,95.438,540.242,539.252,0.0
52623.0,STARLINK-3986,PAYLOAD,2023-07-11 14:11:05,15.08851662,8.38e-05,53.2165,313.0392,95.6118,264.497,0.00055843,8.614e-05,0.0,0 STARLINK-3986,1 52623U 22052AB  23192.59103341  .00008614  00000-0  55843-3 0  9999,2 52623  53.2165 313.0392 0000838  95.6118 264.4970 15.08851662 64613,6917.845,95.437,540.289,539.13,0.0
52623.0,STARLINK-3986,PAYLOAD,2023-07-12 17:12:38,15.08850808,0.0001128,53.2165,307.9838,88.6048,271.5074,0.00044514,6.806e-05,0.0,0 STARLINK-3986,1 52623U 22052AB  23193.71711295  .00006806  00000-0  44514-3 0  9991,2 52623  53.2165 307.9838 0001128  88.6048 271.5074 15.08850808 64780,6917.847,95.437,540.493,538.932,0.0
52623.0,STARLINK-3986,PAYLOAD,2023-07-13 13:52:39,15.08836271,0.0001235,53.2172,304.1191,80.3877,279.7254,1.4158e-05,-6.3e-07,0.0,0 STARLINK-3986,1 52623U 22052AB  23194.57823885 -.00000063  00000-0  14158-4 0  9997,2 52623  53.2172 304.1191 0001235  80.3877 279.7254 15.08836271 64910,6917.892,95.438,540.611,538.902,0.0
52623.0,STARLINK-3986,PAYLOAD,2023-07-14 13:43:26,15.08851796,0.000103,53.218,299.659,95.0788,265.0321,-5.1483e-05,-1.107e-05,0.0,0 STARLINK-3986,1 52623U 22052AB  23195.57183309 -.00001107  00000-0 -51483-4 0  9991,2 52623  53.2180 299.6590 0001030  95.0788 265.0321 15.08851796 65066,6917.844,95.437,540.422,538.997,0.0
52623.0,STARLINK-3986,PAYLOAD,2023-07-15 13:34:13,15.08840238,0.0001159,53.2178,295.1983,100.229,259.8832,0.00013199,1.813e-05,0.0,0 STARLINK-3986,1 52623U 22052AB  23196.56543934  .00001813  00000-0  13199-3 0  9998,2 52623  53.2178 295.1983 0001159 100.2290 259.8832 15.08840238 65213,6917.88,95.438,540.546,538.943,0.0
52623.0,STARLINK-3986,PAYLOAD,2023-07-16 13:25:01,15.08837922,0.0001127,53.2186,290.7383,106.4734,253.6382,4.3414e-05,4.03e-06,0.0,0 STARLINK-3986,1 52623U 22052AB  23197.55904459  .00000403  00000-0  43414-4 0  9999,2 52623  53.2186 290.7383 0001127 106.4734 253.6382 15.08837922 65367,6917.887,95.438,540.531,538.972,0.0
52623.0,STARLINK-3986,PAYLOAD,2023-07-17 13:15:47,15.08848476,0.0001148,53.2172,286.2782,103.1323,256.9797,0.00022733,3.333e-05,0.0,0 STARLINK-3986,1 52623U 22052AB  23198.55263801  .00003333  00000-0  22733-3 0  9994,2 52623  53.2172 286.2782 0001148 103.1323 256.9797 15.08848476 65515,6917.854,95.437,540.514,538.925,0.0
52623.0,STARLINK-3986,PAYLOAD,2023-07-18 11:31:11,15.08844797,0.0001367,53.218,282.1146,112.7116,247.402,0.00014559,2.03e-05,0.0,0 STARLINK-3986,1 52623U 22052AB  23199.47999868  .00002030  00000-0  14559-3 0  9995,2 52623  53.2180 282.1146 0001367 112.7116 247.4020 15.08844797 65653,6917.866,95.437,540.676,538.785,0.0
52623.0,STARLINK-3986,PAYLOAD,2023-07-19 12:57:21,15.08850519,0.000111,53.2172,277.3567,80.8463,279.2655,0.0001194,1.613e-05,0.0,0 STARLINK-3986,1 52623U 22052AB  23200.53983370  .00001613  00000-0  11940-3 0  9993,2 52623  53.2172 277.3567 0001110  80.8463 279.2655 15.08850519 65817,6917.848,95.437,540.481,538.945,0.0
52623.0,STARLINK-3986,PAYLOAD,2023-07-20 09:37:23,15.08836144,0.0001171,53.2172,273.4911,78.1487,281.9636,-5.3789e-05,-1.144e-05,0.0,0 STARLINK-3986,1 52623U 22052AB  23201.40096223 -.00001144  00000-0 -53789-4 0  9991,2 52623  53.2172 273.4911 0001171  78.1487 281.9636 15.08836144 65941,6917.892,95.438,540.567,538.947,0.0
52623.0,STARLINK-3986,PAYLOAD,2023-07-24 02:38:59,15.08838701,0.0001177,53.2169,256.8382,99.2355,260.8771,6.8397e-05,8.01e-06,0.0,0 STARLINK-3986,1 52623U 22052AB  23205.11040842  .00000801  00000-0  68397-4 0  9997,2 52623  53.2169 256.8382 0001177  99.2355 260.8771 15.08838701 66126,6917.884,95.438,540.564,538.935,0.0
52623.0,STARLINK-3986,PAYLOAD,2023-07-25 10:26:42,15.08837671,0.0001256,53.2161,250.89,99.7757,260.3377,5.118e-05,5.27e-06,0.0,0 STARLINK-3986,1 52623U 22052AB  23206.43521327  .00000527  00000-0  51180-4 0  9992,2 52623  53.2161 250.8900 0001256  99.7757 260.3377 15.08837671 66321,6917.888,95.438,540.621,538.884,0.0
52623.0,STARLINK-3986,PAYLOAD,2023-07-26 02:20:33,15.08838085,9.62e-05,53.2148,247.9154,83.1396,276.9705,9.592e-05,1.239e-05,0.0,0 STARLINK-3986,1 52623U 22052AB  23207.09761343  .00001239  00000-0  95920-4 0  9990,2 52623  53.2148 247.9154 0000962  83.1396 276.9705 15.08838085 66422,6917.886,95.438,540.417,539.086,0.0
52623.0,STARLINK-3986,PAYLOAD,2023-07-26 19:49:47,15.08849913,8.87e-05,53.215,244.6447,75.9347,284.1744,0.00010046,1.312e-05,0.0,0 STARLINK-3986,1 52623U 22052AB  23207.82624640  .00001312  00000-0  10046-3 0  9996,2 52623  53.2150 244.6447 0000887  75.9347 284.1744 15.08849913 66533,6917.85,95.437,540.329,539.101,0.0
52623.0,STARLINK-3986,PAYLOAD,2023-07-27 02:11:20,15.08842915,9.83e-05,53.2154,243.4554,79.059,281.0513,0.00011465,1.538e-05,0.0,0 STARLINK-3986,1 52623U 22052AB  23208.09120874  .00001538  00000-0  11465-3 0  9992,2 52623  53.2154 243.4554 0000983  79.0590 281.0513 15.08842915 66956,6917.871,95.437,540.417,539.056,0.0
52623.0,STARLINK-3986,PAYLOAD,2023-07-27 08:32:52,15.08843785,9.78e-05,53.2154,242.2657,78.594,281.5162,0.0001092,1.451e-05,0.0,0 STARLINK-3986,1 52623U 22052AB  23208.35616842  .00001451  00000-0  10920-3 0  9995,2 52623  53.2154 242.2657 0000978  78.5940 281.5162 15.08843785 66618,6917.869,95.437,540.41,539.057,0.0
52623.0,STARLINK-3986,PAYLOAD,2023-07-27 19:40:34,15.0884318,9.87e-05,53.2154,240.1848,91.3339,268.7766,6.8338e-05,8e-06,0.0,0 STARLINK-3986,1 52623U 22052AB  23208.81984786  .00000800  00000-0  68338-4 0  9995,2 52623  53.2154 240.1848 0000987  91.3339 268.7766 15.08843180 66685,6917.871,95.437,540.418,539.053,0.0
52623.0,STARLINK-3986,PAYLOAD,2023-07-28 02:02:07,15.08842097,8.97e-05,53.2137,238.9949,64.9161,295.1924,-2.2201e-06,-3.23e-06,0.0,0 STARLINK-3986,1 52623U 22052AB  23209.08481120 -.00000323  00000-0 -22201-5 0  9991,2 52623  53.2137 238.9949 0000897  64.9161 295.1924 15.08842097 67106,6917.874,95.437,540.36,539.118,0.0
52623.0,STARLINK-3986,PAYLOAD,2023-07-28 06:48:17,15.0883477,0.0001037,53.2157,238.105,50.5007,309.6076,-5.5393e-05,-1.169e-05,0.0,0 STARLINK-3986,1 52623U 22052AB  23209.28353818 -.00001169  00000-0 -55393-4 0  9991,2 52623  53.2157 238.1050 0001037  50.5007 309.6076 15.08834770 67131,6917.896,95.438,540.479,539.044,0.0
52623.0,STARLINK-3986,PAYLOAD,2023-07-28 11:34:26,15.08857344,0.0001141,53.2155,237.2122,77.7933,282.3187,-0.00035755,-5.976e-05,0.0,0 STARLINK-3986,1 52623U 22052AB  23209.48225068 -.00005976  00000-0 -35755-3 0  9997,2 52623  53.2155 237.2122 0001141  77.7933 282.3187 15.08857344 66786,6917.827,95.436,540.482,538.903,0.0
52623.0,STARLINK-3986,PAYLOAD,2023-07-28 19:31:22,15.08836598,0.0001223,53.2156,235.7254,82.5572,277.5559,-7.1845e-05,-1.431e-05,0.0,0 STARLINK-3986,1 52623U 22052AB  23209.81345814 -.00001431  00000-0 -71845-4 0  9999,2 52623  53.2156 235.7254 0001223  82.5572 277.5559 15.08836598 67216,6917.891,95.438,540.602,538.91,0.0
52623.0,STARLINK-3986,PAYLOAD,2023-07-29 08:14:27,15.0883892,0.0001273,53.2163,233.3447,100.654,259.4595,2.3248e-05,8.2e-07,0.0,0 STARLINK-3986,1 52623U 22052AB  23210.34337287  .00000082  00000-0  23248-4 0  9997,2 52623  53.2163 233.3447 0001273 100.6540 259.4595 15.08838920 67292,6917.884,95.438,540.629,538.868,0.0
52623.0,STARLINK-3986,PAYLOAD,2023-07-30 17:37:33,15.08837004,0.0001212,53.2163,227.0998,91.1924,268.9207,7.6106e-05,9.23e-06,0.0,0 STARLINK-3986,1 52623U 22052AB  23211.73441475  .00000923  00000-0  76106-4 0  9991,2 52623  53.2163 227.0998 0001212  91.1924 268.9207 15.08837004 67507,6917.89,95.438,540.593,538.916,0.0
52623.0,STARLINK-3986,PAYLOAD,2023-08-01 09:22:12,15.0883867,0.0001168,53.2156,219.6662,86.2456,273.867,6.6734e-06,-1.82e-06,0.0,0 STARLINK-3986,1 52623U 22052AB  23213.39041771 -.00000182  00000-0  66734-5 0  9995,2 52623  53.2156 219.6662 0001168  86.2456 273.8670 15.08838670 67755,6917.884,95.438,540.557,538.941,0.0
52623.0,STARLINK-3986,PAYLOAD,2023-08-02 17:09:54,15.08838276,0.0001183,53.2159,213.7199,91.3576,268.7552,4.7397e-05,4.67e-06,0.0,0 STARLINK-3986,1 52623U 22052AB  23214.71521866  .00000467  00000-0  47397-4 0  9998,2 52623  53.2159 213.7199 0001183  91.3576 268.7552 15.08838276 67951,6917.886,95.438,540.569,538.932,0.0
52623.0,STARLINK-3986,PAYLOAD,2023-08-04 08:54:33,15.08835743,0.0001263,53.2163,206.2835,90.181,269.9327,1.1779e-05,-1e-06,0.0,0 STARLINK-3986,1 52623U 22052AB  23216.37122458 -.00000100  00000-0  11779-4 0  9996,2 52623  53.2163 206.2835 0001263  90.1810 269.9327 15.08835743 68205,6917.893,95.438,540.632,538.885,0.0
